[
  {
    "OBJECT_NAME": "STARLINK-35296",
    "OBJECT_ID": "25218L",
    "EPOCH": "2025-11-11T04:46:05.447424",
    "MEAN_MOTION": 15.06474259,
    "ECCENTRICITY": 0.0002187,
    "INCLINATION": 97.602,
    "RA_OF_ASC_NODE": 176.2077,
    "ARG_OF_PERICENTER": 86.2291,
    "MEAN_ANOMALY": 273.9186,
    "EPHEMERIS_TYPE": 0,
    "CLASSIFICATION_TYPE": "U",
    "NORAD_CAT_ID": 65801,
    "ELEMENT_SET_NO": 999,
    "REV_AT_EPOCH": 714,
    "BSTAR": 0.00051311,
    "MEAN_MOTION_DOT": 7.516e-05,
    "MEAN_MOTION_DDOT": 0.0,
    "TLE_LINE1": "1 65801U 25218L   25315.19867416  .00007516  00000+0  51311-3 0  9998",
    "TLE_LINE2": "2 65801  97.6020 176.2077 0002187  86.2291 273.9186 15.06474259  7143",
    "COMMENT": "Grouped by shell and plane from TLE"
  },
  {
    "OBJECT_NAME": "STARLINK-34919",
    "OBJECT_ID": "25218M",
    "EPOCH": "2025-11-11T05:07:01.723296",
    "MEAN_MOTION": 15.05659142,
    "ECCENTRICITY": 0.0002526,
    "INCLINATION": 97.6007,
    "RA_OF_ASC_NODE": 176.1898,
    "ARG_OF_PERICENTER": 97.4608,
    "MEAN_ANOMALY": 262.6906,
    "EPHEMERIS_TYPE": 0,
    "CLASSIFICATION_TYPE": "U",
    "NORAD_CAT_ID": 65802,
    "ELEMENT_SET_NO": 999,
    "REV_AT_EPOCH": 714,
    "BSTAR": 0.00076068,
    "MEAN_MOTION_DOT": 0.00010935,
    "MEAN_MOTION_DDOT": 0.0,
    "TLE_LINE1": "1 65802U 25218M   25315.21321439  .00010935  00000+0  76068-3 0  9997",
    "TLE_LINE2": "2 65802  97.6007 176.1898 0002526  97.4608 262.6906 15.05659142  7142",
    "COMMENT": "Grouped by shell and plane from TLE"
  },
  {
    "OBJECT_NAME": "STARLINK-35286",
    "OBJECT_ID": "25218N",
    "EPOCH": "2025-11-11T04:19:03.107712",
    "MEAN_MOTION": 15.06476095,
    "ECCENTRICITY": 0.0001979,
    "INCLINATION": 97.6,
    "RA_OF_ASC_NODE": 176.0807,
    "ARG_OF_PERICENTER": 103.0599,
    "MEAN_ANOMALY": 257.0849,
    "EPHEMERIS_TYPE": 0,
    "CLASSIFICATION_TYPE": "U",
    "NORAD_CAT_ID": 65803,
    "ELEMENT_SET_NO": 999,
    "REV_AT_EPOCH": 713,
    "BSTAR": 0.00072274,
    "MEAN_MOTION_DOT": 0.00010617,
    "MEAN_MOTION_DDOT": 0.0,
    "TLE_LINE1": "1 65803U 25218N   25315.17989708  .00010617  00000+0  72274-3 0  9994",
    "TLE_LINE2": "2 65803  97.6000 176.0807 0001979 103.0599 257.0849 15.06476095  7137",
    "COMMENT": "Grouped by shell and plane from TLE"
  },
  {
    "OBJECT_NAME": "STARLINK-35266",
    "OBJECT_ID": "25218P",
    "EPOCH": "2025-11-11T04:07:12.408960",
    "MEAN_MOTION": 15.05663632,
    "ECCENTRICITY": 0.0002288,
    "INCLINATION": 97.6014,
    "RA_OF_ASC_NODE": 176.0909,
    "ARG_OF_PERICENTER": 76.3458,
    "MEAN_ANOMALY": 283.8023,
    "EPHEMERIS_TYPE": 0,
    "CLASSIFICATION_TYPE": "U",
    "NORAD_CAT_ID": 65804,
    "ELEMENT_SET_NO": 999,
    "REV_AT_EPOCH": 713,
    "BSTAR": 0.0006044199999999999,
    "MEAN_MOTION_DOT": 8.674e-05,
    "MEAN_MOTION_DDOT": 0.0,
    "TLE_LINE1": "1 65804U 25218P   25315.17167140  .00008674  00000+0  60442-3 0  9997",
    "TLE_LINE2": "2 65804  97.6014 176.0909 0002288  76.3458 283.8023 15.05663632  7131",
    "COMMENT": "Grouped by shell and plane from TLE"
  },
  {
    "OBJECT_NAME": "STARLINK-35273",
    "OBJECT_ID": "25218Q",
    "EPOCH": "2025-11-11T04:03:13.340160",
    "MEAN_MOTION": 15.05659126,
    "ECCENTRICITY": 0.0002636,
    "INCLINATION": 97.602,
    "RA_OF_ASC_NODE": 176.0934,
    "ARG_OF_PERICENTER": 83.2144,
    "MEAN_ANOMALY": 276.9382,
    "EPHEMERIS_TYPE": 0,
    "CLASSIFICATION_TYPE": "U",
    "NORAD_CAT_ID": 65805,
    "ELEMENT_SET_NO": 999,
    "REV_AT_EPOCH": 713,
    "BSTAR": 0.00061458,
    "MEAN_MOTION_DOT": 8.821e-05,
    "MEAN_MOTION_DDOT": 0.0,
    "TLE_LINE1": "1 65805U 25218Q   25315.16890440  .00008821  00000+0  61458-3 0  9995",
    "TLE_LINE2": "2 65805  97.6020 176.0934 0002636  83.2144 276.9382 15.05659126  7137",
    "COMMENT": "Grouped by shell and plane from TLE"
  },
  {
    "OBJECT_NAME": "STARLINK-35047",
    "OBJECT_ID": "25218R",
    "EPOCH": "2025-11-11T03:43:35.545728",
    "MEAN_MOTION": 15.06469327,
    "ECCENTRICITY": 0.0001885,
    "INCLINATION": 97.6031,
    "RA_OF_ASC_NODE": 176.1112,
    "ARG_OF_PERICENTER": 89.1695,
    "MEAN_ANOMALY": 270.9749,
    "EPHEMERIS_TYPE": 0,
    "CLASSIFICATION_TYPE": "U",
    "NORAD_CAT_ID": 65806,
    "ELEMENT_SET_NO": 999,
    "REV_AT_EPOCH": 713,
    "BSTAR": 0.00033962,
    "MEAN_MOTION_DOT": 4.952e-05,
    "MEAN_MOTION_DDOT": 0.0,
    "TLE_LINE1": "1 65806U 25218R   25315.15527252  .00004952  00000+0  33962-3 0  9993",
    "TLE_LINE2": "2 65806  97.6031 176.1112 0001885  89.1695 270.9749 15.06469327  7134",
    "COMMENT": "Grouped by shell and plane from TLE"
  },
  {
    "OBJECT_NAME": "STARLINK-35285",
    "OBJECT_ID": "25218S",
    "EPOCH": "2025-11-11T03:51:15.599808",
    "MEAN_MOTION": 15.05654915,
    "ECCENTRICITY": 0.0002493,
    "INCLINATION": 97.6038,
    "RA_OF_ASC_NODE": 176.1044,
    "ARG_OF_PERICENTER": 87.3361,
    "MEAN_ANOMALY": 272.8151,
    "EPHEMERIS_TYPE": 0,
    "CLASSIFICATION_TYPE": "U",
    "NORAD_CAT_ID": 65807,
    "ELEMENT_SET_NO": 999,
    "REV_AT_EPOCH": 713,
    "BSTAR": 0.00041772,
    "MEAN_MOTION_DOT": 5.973e-05,
    "MEAN_MOTION_DDOT": 0.0,
    "TLE_LINE1": "1 65807U 25218S   25315.16059722  .00005973  00000+0  41772-3 0  9999",
    "TLE_LINE2": "2 65807  97.6038 176.1044 0002493  87.3361 272.8151 15.05654915  7138",
    "COMMENT": "Grouped by shell and plane from TLE"
  },
  {
    "OBJECT_NAME": "STARLINK-34580",
    "OBJECT_ID": "25218T",
    "EPOCH": "2025-11-11T03:39:17.773920",
    "MEAN_MOTION": 15.05655813,
    "ECCENTRICITY": 0.000153,
    "INCLINATION": 97.6026,
    "RA_OF_ASC_NODE": 176.115,
    "ARG_OF_PERICENTER": 106.7741,
    "MEAN_ANOMALY": 253.3654,
    "EPHEMERIS_TYPE": 0,
    "CLASSIFICATION_TYPE": "U",
    "NORAD_CAT_ID": 65808,
    "ELEMENT_SET_NO": 999,
    "REV_AT_EPOCH": 713,
    "BSTAR": 0.00059158,
    "MEAN_MOTION_DOT": 8.487e-05,
    "MEAN_MOTION_DDOT": 0.0,
    "TLE_LINE1": "1 65808U 25218T   25315.15228905  .00008487  00000+0  59158-3 0  9990",
    "TLE_LINE2": "2 65808  97.6026 176.1150 0001530 106.7741 253.3654 15.05655813  7133",
    "COMMENT": "Grouped by shell and plane from TLE"
  },
  {
    "OBJECT_NAME": "STARLINK-35289",
    "OBJECT_ID": "25218U",
    "EPOCH": "2025-11-11T05:07:41.320416",
    "MEAN_MOTION": 15.06498804,
    "ECCENTRICITY": 0.0002169,
    "INCLINATION": 97.6015,
    "RA_OF_ASC_NODE": 176.1887,
    "ARG_OF_PERICENTER": 90.0465,
    "MEAN_ANOMALY": 270.1011,
    "EPHEMERIS_TYPE": 0,
    "CLASSIFICATION_TYPE": "U",
    "NORAD_CAT_ID": 65809,
    "ELEMENT_SET_NO": 999,
    "REV_AT_EPOCH": 714,
    "BSTAR": 0.0009406,
    "MEAN_MOTION_DOT": 0.00013851,
    "MEAN_MOTION_DDOT": 0.0,
    "TLE_LINE1": "1 65809U 25218U   25315.21367269  .00013851  00000+0  94060-3 0  9997",
    "TLE_LINE2": "2 65809  97.6015 176.1887 0002169  90.0465 270.1011 15.06498804  7147",
    "COMMENT": "Grouped by shell and plane from TLE"
  },
  {
    "OBJECT_NAME": "STARLINK-35268",
    "OBJECT_ID": "25218V",
    "EPOCH": "2025-11-11T04:51:04.665312",
    "MEAN_MOTION": 15.056634,
    "ECCENTRICITY": 0.0002146,
    "INCLINATION": 97.6017,
    "RA_OF_ASC_NODE": 176.203,
    "ARG_OF_PERICENTER": 71.381,
    "MEAN_ANOMALY": 288.7649,
    "EPHEMERIS_TYPE": 0,
    "CLASSIFICATION_TYPE": "U",
    "NORAD_CAT_ID": 65810,
    "ELEMENT_SET_NO": 999,
    "REV_AT_EPOCH": 714,
    "BSTAR": 0.0005705700000000001,
    "MEAN_MOTION_DOT": 8.185e-05,
    "MEAN_MOTION_DDOT": 0.0,
    "TLE_LINE1": "1 65810U 25218V   25315.20213733  .00008185  00000+0  57057-3 0  9993",
    "TLE_LINE2": "2 65810  97.6017 176.2030 0002146  71.3810 288.7649 15.05663400  7140",
    "COMMENT": "Grouped by shell and plane from TLE"
  },
  {
    "OBJECT_NAME": "STARLINK-35224",
    "OBJECT_ID": "25218W",
    "EPOCH": "2025-11-11T08:00:03.000384",
    "MEAN_MOTION": 15.05651238,
    "ECCENTRICITY": 0.0002536,
    "INCLINATION": 97.6029,
    "RA_OF_ASC_NODE": 176.3268,
    "ARG_OF_PERICENTER": 67.8862,
    "MEAN_ANOMALY": 268.0187,
    "EPHEMERIS_TYPE": 0,
    "CLASSIFICATION_TYPE": "U",
    "NORAD_CAT_ID": 65811,
    "ELEMENT_SET_NO": 999,
    "REV_AT_EPOCH": 596,
    "BSTAR": 0.0,
    "MEAN_MOTION_DOT": -0.00017779,
    "MEAN_MOTION_DDOT": 0.0,
    "TLE_LINE1": "1 65811U 25218W   25315.33336806 -.00017779  00000+0 -12309-2 0  9996",
    "TLE_LINE2": "2 65811  97.6029 176.3268 0002536  67.8862 268.0187 15.05651238  5960",
    "COMMENT": "Grouped by shell and plane from TLE"
  },
  {
    "OBJECT_NAME": "STARLINK-35271",
    "OBJECT_ID": "25218X",
    "EPOCH": "2025-11-11T04:39:38.143008",
    "MEAN_MOTION": 15.06477802,
    "ECCENTRICITY": 0.0001434,
    "INCLINATION": 97.6015,
    "RA_OF_ASC_NODE": 176.2132,
    "ARG_OF_PERICENTER": 96.9392,
    "MEAN_ANOMALY": 263.1998,
    "EPHEMERIS_TYPE": 0,
    "CLASSIFICATION_TYPE": "U",
    "NORAD_CAT_ID": 65812,
    "ELEMENT_SET_NO": 999,
    "REV_AT_EPOCH": 714,
    "BSTAR": 0.00049107,
    "MEAN_MOTION_DOT": 7.191e-05,
    "MEAN_MOTION_DDOT": 0.0,
    "TLE_LINE1": "1 65812U 25218X   25315.19419147  .00007191  00000+0  49107-3 0  9993",
    "TLE_LINE2": "2 65812  97.6015 176.2132 0001434  96.9392 263.1998 15.06477802  7144",
    "COMMENT": "Grouped by shell and plane from TLE"
  },
  {
    "OBJECT_NAME": "STARLINK-35215",
    "OBJECT_ID": "25218Y",
    "EPOCH": "2025-11-11T04:31:52.110048",
    "MEAN_MOTION": 15.06471698,
    "ECCENTRICITY": 0.0002022,
    "INCLINATION": 97.6014,
    "RA_OF_ASC_NODE": 176.2213,
    "ARG_OF_PERICENTER": 92.1691,
    "MEAN_ANOMALY": 267.9768,
    "EPHEMERIS_TYPE": 0,
    "CLASSIFICATION_TYPE": "U",
    "NORAD_CAT_ID": 65813,
    "ELEMENT_SET_NO": 999,
    "REV_AT_EPOCH": 714,
    "BSTAR": 0.0007163699999999999,
    "MEAN_MOTION_DOT": 0.00010522,
    "MEAN_MOTION_DDOT": 0.0,
    "TLE_LINE1": "1 65813U 25218Y   25315.18879757  .00010522  00000+0  71637-3 0  9995",
    "TLE_LINE2": "2 65813  97.6014 176.2213 0002022  92.1691 267.9768 15.06471698  7142",
    "COMMENT": "Grouped by shell and plane from TLE"
  }
]